GLOBALSTAR M075         
1 37192U 10054E   25204.57862708 -.00000088  00000+0  87131-4 0  9998
2 37192  51.9954  70.7334 0000753  66.8125 309.8356 12.62266299680445
GLOBALSTAR M073         
1 37193U 10054F   25204.59272043 -.00000104  00000+0  98559-6 0  9995
2 37193  52.0081 344.5363 0000896  93.9238 347.3212 12.62272575682430
GLOBALSTAR M083         
1 37739U 11033A   25204.51225281 -.00000075  00000+0  15875-3 0  9997
2 37739  51.9865 293.4678 0000403 119.3936 253.9840 12.62260266651447
GLOBALSTAR M088         
1 37740U 11033B   25204.24801127 -.00000092  00000+0  63793-4 0  9990
2 37740  52.0187 199.8980 0000039 202.7370 170.4436 12.62266979647241
GLOBALSTAR M091         
1 37741U 11033C   25204.61249257 -.00000116  00000+0 -71028-4 0  9990
2 37741  51.9981 162.2378 0000390 347.3140 183.6834 12.62269430647780
GLOBALSTAR M085         
1 37742U 11033D   25204.52010736 -.00000107  00000+0 -16866-4 0  9998
2 37742  51.9864 113.5248 0000584  27.8995 143.7226 12.62269887648283
GLOBALSTAR M081         
1 37743U 11033E   25204.46761764 -.00000109  00000+0 -27386-4 0  9997
2 37743  51.9956 116.4967 0000733  36.4779 134.7947 12.62267107648427
GLOBALSTAR M089         
1 37744U 11033F   25204.55517344 -.00000090  00000+0  79178-4 0  9995
2 37744  51.9936  70.4497 0000962  79.3436 311.1359 12.62265445649289
